33060,ORBCOMM FM38,2008,97.3,-1.0,-,48.44,Inactive,0,LEO,Russia,ORBCOMM,Unknown,Unknown,Unknown,1 33060U 08031A   24363.55659726  .00005248  00000+0  71439-3 0  9992,2 33060  48.4410  47.6580 0005579  13.5348 346.5716 14.79941688889469,14.79941688,0.0005579,LEO
33061,ORBCOMM FM41,2008,97.33,-1.0,-,48.44,Inactive,0,LEO,Russia,ORBCOMM,Unknown,Unknown,Unknown,1 33061U 08031B   24363.61250051  .00004905  00000+0  67541-3 0  9996,2 33061  48.4443  54.6149 0004980 357.8113 163.4588 14.79574031888965,14.79574031,0.000498,LEO
33062,ORBCOMM FM29,2008,97.32,-1.0,-,48.44,Inactive,0,LEO,Russia,ORBCOMM,Unknown,Unknown,Unknown,1 33062U 08031C   24363.53328913  .00005279  00000+0  72400-3 0  9996,2 33062  48.4395  62.9673 0006636 358.9370 140.6758 14.79609337888866,14.79609337,0.0006636,LEO
33063,ORBCOMM FM39,2008,97.41,-1.0,-,48.44,Inactive,0,LEO,Russia,ORBCOMM,Unknown,Unknown,Unknown,1 33063U 08031D   24363.51441875  .00004849  00000+0  68758-3 0  9991,2 33063  48.4404  85.5532 0007764 335.0997  24.9542 14.78334751888530,14.78334751,0.0007764,LEO
25983,ORBCOMM FM33,1999,100.06,-1.0,-,45.03,Inactive,0,LEO,Eastern Range Airspace,ORBCOMM,Unknown,Unknown,Unknown,1 25983U 99065D   24363.59223644  .00003532  00000+0  11752-2 0  9999,2 25983  45.0282  89.5693 0010190 274.3549  85.6135 14.39133122311489,14.39133122,0.001019,LEO
25984,ORBCOMM FM36,1999,100.19,45.0,-,45.04,Inactive,1,LEO,Eastern Range Airspace,ORBCOMM,Commercial,Communications,Pegasus,1 25984U 99065E   24363.54066947  .00003387  00000+0  11734-2 0  9994,2 25984  45.0368 179.1150 0004368 164.7877 195.3103 14.37245253309865,14.37245253,0.0004368,LEO
25986,ORBCOMM FM34,1999,100.25,-1.0,-,45.04,Inactive,0,LEO,Eastern Range Airspace,ORBCOMM,Unknown,Unknown,Unknown,1 25986U 99065G   24363.79268651  .00002588  00000+0  92287-3 0  9994,2 25986  45.0366 182.2076 0004403 200.4063 159.6609 14.36419767310433,14.36419767,0.0004403,LEO
25985,ORBCOMM FM35,1999,100.25,45.0,-,45.04,Inactive,1,LEO,Eastern Range Airspace,ORBCOMM,Commercial,Communications,Pegasus,1 25985U 99065F   24363.82202082  .00002513  00000+0  89839-3 0  9990,2 25985  45.0369 181.5410 0003485 247.0533 112.9948 14.36381257310471,14.36381257,0.0003485,LEO
